{"type":"FeatureCollection","features":[{"type":"Feature","geometry":{"type":"Point","coordinates":[-9.3892,30.3027]},"properties":{"id":"marker0","type":"volcanoes","icon":"🌋","x":405.74,"y":309.51,"name":"Foliveton","legend":"Erupting volcano. Height: 4489m."}},{"type":"Feature","geometry":{"type":"Point","coordinates":[-12.7385,29.1864]},"properties":{"id":"marker1","type":"volcanoes","icon":"🌋","x":335.73,"y":332.86,"name":"Knutster Volcano","legend":"Dormant volcano. Height: 2704m."}},{"type":"Feature","geometry":{"type":"Point","coordinates":[16.869,23.2093]},"properties":{"id":"marker2","type":"volcanoes","icon":"🌋","x":954.61,"y":457.88,"name":"Grantham","legend":"Erupting volcano. Height: 4356m."}},{"type":"Feature","geometry":{"type":"Point","coordinates":[14.7751,19.2694]},"properties":{"id":"marker3","type":"hot-springs","icon":"♨️","x":910.84,"y":540.29,"name":"Hot Springs of Intaberthin","legend":"A geothermal springs with naturally heated water that provide relaxation and medicinal benefits. Average temperature is 33°C."}},{"type":"Feature","geometry":{"type":"Point","coordinates":[8.175,31.1255]},"properties":{"id":"marker4","type":"hot-springs","icon":"♨️","x":772.88,"y":292.3,"name":"Enayay Hot Springs","legend":"A geothermal springs with naturally heated water that provide relaxation and medicinal benefits. Average temperature is 43°C."}},{"type":"Feature","geometry":{"type":"Point","coordinates":[-19.0137,18.9247]},"properties":{"id":"marker5","type":"hot-springs","icon":"♨️","x":204.56,"y":547.5,"name":"Hot Springs of Celca","legend":"A geothermal springs with naturally heated water that provide relaxation and medicinal benefits. Average temperature is 23°C."}},{"type":"Feature","geometry":{"type":"Point","coordinates":[0.3004,30.7306]},"properties":{"id":"marker6","type":"water-sources","icon":"💧","x":608.28,"y":300.56,"name":"Beydekiken Creek of Luck","legend":"This legendary water source is whispered about in ancient tales and believed to possess mystical properties. The spring emanates crystal-clear water, shimmering with an otherworldly iridescence that sparkles even in the dimmest light."}},{"type":"Feature","geometry":{"type":"Point","coordinates":[-0.6693,30.8224]},"properties":{"id":"marker7","type":"water-sources","icon":"💧","x":588.01,"y":298.64,"name":"Sarpraklu Healing Spring","legend":"This legendary water source is whispered about in ancient tales and believed to possess mystical properties. The spring emanates crystal-clear water, shimmering with an otherworldly iridescence that sparkles even in the dimmest light."}},{"type":"Feature","geometry":{"type":"Point","coordinates":[-10.4005,35.3594]},"properties":{"id":"marker8","type":"water-sources","icon":"💧","x":384.6,"y":203.74,"name":"Onenka Healing Stream","legend":"This legendary water source is whispered about in ancient tales and believed to possess mystical properties. The spring emanates crystal-clear water, shimmering with an otherworldly iridescence that sparkles even in the dimmest light."}},{"type":"Feature","geometry":{"type":"Point","coordinates":[-17.3934,24.7244]},"properties":{"id":"marker9","type":"mines","icon":"⛏️","x":238.43,"y":426.19,"name":"Sonte — salt mining town","legend":"Sonte is a mining town of 4406 people just nearby the salt mine."}},{"type":"Feature","geometry":{"type":"Point","coordinates":[-19.7141,26.6487]},"properties":{"id":"marker10","type":"mines","icon":"⛏️","x":189.92,"y":385.94,"name":"Vantignelly — salt mining town","legend":"Vantignelly is a mining town of 527 people just nearby the salt mine."}},{"type":"Feature","geometry":{"type":"Point","coordinates":[-22.4898,22.3665]},"properties":{"id":"marker11","type":"mines","icon":"⛏️","x":131.9,"y":475.51,"name":"Vienvilles — gold mining town","legend":"Vienvilles is a mining town of 577 people just nearby the gold mine."}},{"type":"Feature","geometry":{"type":"Point","coordinates":[21.9531,21.787]},"properties":{"id":"marker12","type":"mines","icon":"⛏️","x":1060.88,"y":487.63,"name":"Swasal — iron mining town","legend":"Swasal is a mining town of 1830 people just nearby the iron mine."}},{"type":"Feature","geometry":{"type":"Point","coordinates":[14.2273,28.5629]},"properties":{"id":"marker13","type":"bridges","icon":"🌉","x":899.39,"y":345.9,"name":"Cliford Bridge","legend":"A stone bridge spans over the Birbury River near Cliford."}},{"type":"Feature","geometry":{"type":"Point","coordinates":[18.7066,25.8531]},"properties":{"id":"marker14","type":"bridges","icon":"🌉","x":993.02,"y":402.58,"name":"Exningdon Bridge","legend":"A stone bridge spans over the Bamerbury River near Exningdon."}},{"type":"Feature","geometry":{"type":"Point","coordinates":[27.2327,25.7446]},"properties":{"id":"marker15","type":"bridges","icon":"🌉","x":1171.24,"y":404.85,"name":"Shifton Bridge","legend":"A formidable bridge spans over the Wargdondo River near Shifton."}},{"type":"Feature","geometry":{"type":"Point","coordinates":[3.9071,36.101]},"properties":{"id":"marker16","type":"lighthouses","icon":"🚨","x":683.67,"y":188.23,"name":"Emirkesenese Lighthouse","legend":"A lighthouse to serve as a beacon for ships in the open sea."}},{"type":"Feature","geometry":{"type":"Point","coordinates":[-27.958,22.289]},"properties":{"id":"marker17","type":"lighthouses","icon":"🚨","x":17.6,"y":477.13,"name":"Raran Lighthouse","legend":"A lighthouse to serve as a beacon for ships in the open sea."}},{"type":"Feature","geometry":{"type":"Point","coordinates":[2.2724,37.6442]},"properties":{"id":"marker18","type":"lighthouses","icon":"🚨","x":649.5,"y":155.95,"name":"Delian Lighthouse","legend":"A lighthouse to serve as a beacon for ships in the open sea."}},{"type":"Feature","geometry":{"type":"Point","coordinates":[-24.9976,18.5465]},"properties":{"id":"marker19","type":"lighthouses","icon":"🚨","x":79.48,"y":555.41,"name":"Pespocenanian Lighthouse","legend":"A lighthouse to serve as a beacon for ships in the open sea."}},{"type":"Feature","geometry":{"type":"Point","coordinates":[-19.4859,13.4138]},"properties":{"id":"marker20","type":"lighthouses","icon":"🚨","x":194.69,"y":662.77,"name":"Monhan Lighthouse","legend":"A lighthouse to serve as a beacon for ships in the open sea."}},{"type":"Feature","geometry":{"type":"Point","coordinates":[7.3789,19.5319]},"properties":{"id":"marker21","type":"lighthouses","icon":"🚨","x":756.24,"y":534.8,"name":"Achian Lighthouse","legend":"A lighthouse to serve as a beacon for ships in the open sea."}},{"type":"Feature","geometry":{"type":"Point","coordinates":[1.4692,34.463]},"properties":{"id":"marker22","type":"lighthouses","icon":"🚨","x":632.71,"y":222.49,"name":"Biltamayaz Lighthouse","legend":"A lighthouse to serve as a beacon for ships in the open sea."}},{"type":"Feature","geometry":{"type":"Point","coordinates":[-26.3941,15.2998]},"properties":{"id":"marker23","type":"lighthouses","icon":"🚨","x":50.29,"y":623.32,"name":"Lucustelpian Lighthouse","legend":"A lighthouse to serve as a beacon for ships in the open sea."}},{"type":"Feature","geometry":{"type":"Point","coordinates":[-1.2864,35.6425]},"properties":{"id":"marker24","type":"lighthouses","icon":"🚨","x":575.11,"y":197.82,"name":"Bildepekian Lighthouse","legend":"A lighthouse to serve as a beacon for ships in the open sea."}},{"type":"Feature","geometry":{"type":"Point","coordinates":[-21.2532,23.6104]},"properties":{"id":"marker25","type":"lighthouses","icon":"🚨","x":157.75,"y":449.49,"name":"Santesarcelese Lighthouse","legend":"A lighthouse to serve as a beacon for ships in the open sea."}},{"type":"Feature","geometry":{"type":"Point","coordinates":[-5.9313,31.8235]},"properties":{"id":"marker26","type":"lighthouses","icon":"🚨","x":478.02,"y":277.7,"name":"Bobalazkayan Lighthouse","legend":"A lighthouse to serve as a beacon for ships in the open sea."}},{"type":"Feature","geometry":{"type":"Point","coordinates":[-26.9682,23.5746]},"properties":{"id":"marker27","type":"lighthouses","icon":"🚨","x":38.29,"y":450.24,"name":"Barcotian Lighthouse","legend":"A lighthouse to serve as a beacon for ships in the open sea."}},{"type":"Feature","geometry":{"type":"Point","coordinates":[-7.5401,21.3462]},"properties":{"id":"marker28","type":"lighthouses","icon":"🚨","x":444.39,"y":496.85,"name":"Yuyukayruan Lighthouse","legend":"A lighthouse to serve as a beacon for ships in the open sea."}},{"type":"Feature","geometry":{"type":"Point","coordinates":[-16.0677,30.754]},"properties":{"id":"marker29","type":"lighthouses","icon":"🚨","x":266.14,"y":300.07,"name":"Bobelese Lighthouse","legend":"A lighthouse to serve as a beacon for ships in the open sea."}},{"type":"Feature","geometry":{"type":"Point","coordinates":[12.1075,23.2189]},"properties":{"id":"marker30","type":"lighthouses","icon":"🚨","x":855.08,"y":457.68,"name":"Cambrigan Lighthouse","legend":"A lighthouse to serve as a beacon for ships in the open sea."}},{"type":"Feature","geometry":{"type":"Point","coordinates":[-12.9327,23.8093]},"properties":{"id":"marker31","type":"lighthouses","icon":"🚨","x":331.67,"y":445.33,"name":"Schliberg Lighthouse","legend":"A lighthouse to serve as a beacon for ships in the open sea."}},{"type":"Feature","geometry":{"type":"Point","coordinates":[18.222,34.1355]},"properties":{"id":"marker32","type":"lighthouses","icon":"🚨","x":982.89,"y":229.34,"name":"Tetrymouth Lighthouse","legend":"A lighthouse to serve as a beacon for ships in the open sea."}},{"type":"Feature","geometry":{"type":"Point","coordinates":[9.8303,18.1253]},"properties":{"id":"marker33","type":"lighthouses","icon":"🚨","x":807.48,"y":564.22,"name":"Sendyran Lighthouse","legend":"A lighthouse to serve as a beacon for ships in the open sea."}},{"type":"Feature","geometry":{"type":"Point","coordinates":[-22.6745,28.2101]},"properties":{"id":"marker34","type":"lighthouses","icon":"🚨","x":128.04,"y":353.28,"name":"Bellean Lighthouse","legend":"A lighthouse to serve as a beacon for ships in the open sea."}},{"type":"Feature","geometry":{"type":"Point","coordinates":[-24.7087,19.005]},"properties":{"id":"marker35","type":"lighthouses","icon":"🚨","x":85.52,"y":545.82,"name":"Proroneran Lighthouse","legend":"A lighthouse to serve as a beacon for ships in the open sea."}},{"type":"Feature","geometry":{"type":"Point","coordinates":[-20.6729,32.0257]},"properties":{"id":"marker36","type":"lighthouses","icon":"🚨","x":169.88,"y":273.47,"name":"Courmean Lighthouse","legend":"A lighthouse to serve as a beacon for ships in the open sea."}},{"type":"Feature","geometry":{"type":"Point","coordinates":[2.1155,20.3709]},"properties":{"id":"marker37","type":"lighthouses","icon":"🚨","x":646.22,"y":517.25,"name":"Kirk Lighthouse","legend":"A lighthouse to serve as a beacon for ships in the open sea."}},{"type":"Feature","geometry":{"type":"Point","coordinates":[-7.709,34.5237]},"properties":{"id":"marker38","type":"lighthouses","icon":"🚨","x":440.86,"y":221.22,"name":"Tuunapuavan Lighthouse","legend":"A lighthouse to serve as a beacon for ships in the open sea."}},{"type":"Feature","geometry":{"type":"Point","coordinates":[-23.3897,23.0578]},"properties":{"id":"marker39","type":"lighthouses","icon":"🚨","x":113.09,"y":461.05,"name":"Venvillian Lighthouse","legend":"A lighthouse to serve as a beacon for ships in the open sea."}},{"type":"Feature","geometry":{"type":"Point","coordinates":[-15.9921,29.61]},"properties":{"id":"marker40","type":"lighthouses","icon":"🚨","x":267.72,"y":324,"name":"Preoulise Lighthouse","legend":"A lighthouse to serve as a beacon for ships in the open sea."}},{"type":"Feature","geometry":{"type":"Point","coordinates":[8.84,34.9397]},"properties":{"id":"marker41","type":"lighthouses","icon":"🚨","x":786.78,"y":212.52,"name":"Sarpkoynak Lighthouse","legend":"A lighthouse to serve as a beacon for ships in the open sea."}},{"type":"Feature","geometry":{"type":"Point","coordinates":[-11.5616,23.4488]},"properties":{"id":"marker42","type":"lighthouses","icon":"🚨","x":360.33,"y":452.87,"name":"Wiedendinweian Lighthouse","legend":"A lighthouse to serve as a beacon for ships in the open sea."}},{"type":"Feature","geometry":{"type":"Point","coordinates":[-8.1635,14.5655]},"properties":{"id":"marker43","type":"lighthouses","icon":"🚨","x":431.36,"y":638.68,"name":"Lillosan Lighthouse","legend":"A lighthouse to serve as a beacon for ships in the open sea."}},{"type":"Feature","geometry":{"type":"Point","coordinates":[16.5968,12.8171]},"properties":{"id":"marker44","type":"lighthouses","icon":"🚨","x":948.92,"y":675.25,"name":"Ardibarrat Lighthouse","legend":"A lighthouse to serve as a beacon for ships in the open sea."}},{"type":"Feature","geometry":{"type":"Point","coordinates":[11.7042,18.0751]},"properties":{"id":"marker45","type":"lighthouses","icon":"🚨","x":846.65,"y":565.27,"name":"Intobhian Lighthouse","legend":"A lighthouse to serve as a beacon for ships in the open sea."}},{"type":"Feature","geometry":{"type":"Point","coordinates":[-7.709,34.8077]},"properties":{"id":"marker46","type":"lighthouses","icon":"🚨","x":440.86,"y":215.28,"name":"Tottulan Lighthouse","legend":"A lighthouse to serve as a beacon for ships in the open sea."}},{"type":"Feature","geometry":{"type":"Point","coordinates":[23.5739,24.3046]},"properties":{"id":"marker47","type":"lighthouses","icon":"🚨","x":1094.76,"y":434.97,"name":"Bridensey Lighthouse","legend":"A lighthouse to serve as a beacon for ships in the open sea."}},{"type":"Feature","geometry":{"type":"Point","coordinates":[-21.9784,23.4044]},"properties":{"id":"marker48","type":"lighthouses","icon":"🚨","x":142.59,"y":453.8,"name":"Givran Lighthouse","legend":"A lighthouse to serve as a beacon for ships in the open sea."}},{"type":"Feature","geometry":{"type":"Point","coordinates":[-25.8095,20.0745]},"properties":{"id":"marker49","type":"lighthouses","icon":"🚨","x":62.51,"y":523.45,"name":"Bolletan Lighthouse","legend":"A lighthouse to serve as a beacon for ships in the open sea."}},{"type":"Feature","geometry":{"type":"Point","coordinates":[-8.6974,15.9218]},"properties":{"id":"marker50","type":"waterfalls","icon":"⟱","x":420.2,"y":610.31,"name":"Nutanese Waterfall","legend":"An impressive waterfall has cut through the land."}},{"type":"Feature","geometry":{"type":"Point","coordinates":[4.9778,24.2941]},"properties":{"id":"marker51","type":"waterfalls","icon":"⟱","x":706.05,"y":435.19,"name":"Aberkeith Waterfall","legend":"An impressive waterfall has cut through the land."}},{"type":"Feature","geometry":{"type":"Point","coordinates":[4.4817,23.9092]},"properties":{"id":"marker52","type":"waterfalls","icon":"⟱","x":695.68,"y":443.24,"name":"Abergaber Waterfall","legend":"An impressive waterfall has cut through the land."}},{"type":"Feature","geometry":{"type":"Point","coordinates":[-11.3057,27.2831]},"properties":{"id":"marker53","type":"waterfalls","icon":"⟱","x":365.68,"y":372.67,"name":"Monchlinbach Waterfall","legend":"An impressive waterfall has cut through the land."}},{"type":"Feature","geometry":{"type":"Point","coordinates":[-11.1095,27.9161]},"properties":{"id":"marker54","type":"waterfalls","icon":"⟱","x":369.78,"y":359.43,"name":"Niederkenese Waterfall","legend":"The rapids of an exceptionally beautiful waterfall."}},{"type":"Feature","geometry":{"type":"Point","coordinates":[-13.215,26.6955]},"properties":{"id":"marker55","type":"waterfalls","icon":"⟱","x":325.77,"y":384.96,"name":"Muhringendinese Waterfall","legend":"A river drops down from a great height forming a wondrous waterfall."}},{"type":"Feature","geometry":{"type":"Point","coordinates":[-11.1827,27.4533]},"properties":{"id":"marker56","type":"waterfalls","icon":"⟱","x":368.25,"y":369.11,"name":"Fluortengenese Waterfall","legend":"The cascades of a stunning waterfall."}},{"type":"Feature","geometry":{"type":"Point","coordinates":[-2.0567,31.0629]},"properties":{"id":"marker57","type":"battlefields","icon":"⚔️","x":559.01,"y":293.61,"name":"Ayli Battlefield","legend":"A historical battle of the Askian War. \r\nDate: October 14, 763 Brury Era."}},{"type":"Feature","geometry":{"type":"Point","coordinates":[14.5526,24.9849]},"properties":{"id":"marker58","type":"battlefields","icon":"⚔️","x":906.19,"y":420.74,"name":"Kozyolde Battlefield","legend":"A historical battle of the Peinan Invasion. \r\nDate: April 13, 763 Brury Era."}},{"type":"Feature","geometry":{"type":"Point","coordinates":[19.2611,33.5743]},"properties":{"id":"marker59","type":"battlefields","icon":"⚔️","x":1004.61,"y":241.08,"name":"Albrorough Battlefield","legend":"A historical battle of the Orporpor Invasion. \r\nDate: October 14, 763 Brury Era."}},{"type":"Feature","geometry":{"type":"Point","coordinates":[-14.1613,30.8143]},"properties":{"id":"marker60","type":"battlefields","icon":"⚔️","x":305.99,"y":298.81,"name":"Menesjah Battlefield","legend":"A historical battle of the Aciasecian Rebellion. \r\nDate: November 8, 465 Brury Era."}},{"type":"Feature","geometry":{"type":"Point","coordinates":[4.5673,23.632]},"properties":{"id":"marker61","type":"battlefields","icon":"⚔️","x":697.47,"y":449.04,"name":"Mheavon Battlefield","legend":"A historical battle of the Boyan Invasion. \r\nDate: November 9, 426 Brury Era."}},{"type":"Feature","geometry":{"type":"Point","coordinates":[-9.6896,35.303]},"properties":{"id":"marker62","type":"battlefields","icon":"⚔️","x":399.46,"y":204.92,"name":"Kamedakka Battlefield","legend":"A historical battle of the Fischrenian War. \r\nDate: March 27, 645 Brury Era."}},{"type":"Feature","geometry":{"type":"Point","coordinates":[-22.6405,21.5336]},"properties":{"id":"marker63","type":"battlefields","icon":"⚔️","x":128.75,"y":492.93,"name":"Tofredrigno Battlefield","legend":"A historical battle of the Nancrean Invasion. \r\nDate: March 17, 612 Brury Era."}},{"type":"Feature","geometry":{"type":"Point","coordinates":[-2.0375,23.992]},"properties":{"id":"marker64","type":"battlefields","icon":"⚔️","x":559.41,"y":441.51,"name":"Kurt Battlefield","legend":"A historical battle of the Boy-Sazkyurtian War. \r\nDate: December 7, 871 Brury Era."}},{"type":"Feature","geometry":{"type":"Point","coordinates":[18.7085,24.6393]},"properties":{"id":"marker65","type":"battlefields","icon":"⚔️","x":993.06,"y":427.97,"name":"Clifton Battlefield","legend":"A historical battle of the Sagelian Campaign. \r\nDate: August 11, 597 Brury Era."}},{"type":"Feature","geometry":{"type":"Point","coordinates":[-7.5306,17.5856]},"properties":{"id":"marker66","type":"battlefields","icon":"⚔️","x":444.59,"y":575.51,"name":"Torzuenana Battlefield","legend":"A historical battle of the Sagelia-Yerintian War. \r\nDate: May 21, 811 Brury Era."}},{"type":"Feature","geometry":{"type":"Point","coordinates":[-6.645,33.1775]},"properties":{"id":"marker67","type":"battlefields","icon":"⚔️","x":463.1,"y":249.38,"name":"Kortelibi Battlefield","legend":"A historical battle of the Boy-Tutachinian War. \r\nDate: May 4, 972 Brury Era."}},{"type":"Feature","geometry":{"type":"Point","coordinates":[-1.8811,33.3969]},"properties":{"id":"marker68","type":"battlefields","icon":"⚔️","x":562.68,"y":244.79,"name":"Kalgarci Battlefield","legend":"A historical battle of the Boy-Sazkyurtian War. \r\nDate: January 27, 996 Brury Era."}},{"type":"Feature","geometry":{"type":"Point","coordinates":[-6.0408,16.7915]},"properties":{"id":"marker69","type":"battlefields","icon":"⚔️","x":475.73,"y":592.12,"name":"Yumankay Battlefield","legend":"A historical battle of the Alprakelian Campaign. \r\nDate: June 4, 418 Brury Era."}},{"type":"Feature","geometry":{"type":"Point","coordinates":[-2.1102,32.7051]},"properties":{"id":"marker70","type":"battlefields","icon":"⚔️","x":557.89,"y":259.26,"name":"Desente Battlefield","legend":"A historical battle of the Boy-Sazkyurtian War. \r\nDate: July 23, 916 Brury Era."}},{"type":"Feature","geometry":{"type":"Point","coordinates":[-16.5988,22.7618]},"properties":{"id":"marker71","type":"battlefields","icon":"⚔️","x":255.04,"y":467.24,"name":"Kuslach Battlefield","legend":"A historical battle of the Patefran Conflict. \r\nDate: April 21, 764 Brury Era."}},{"type":"Feature","geometry":{"type":"Point","coordinates":[-20.4662,17.7902]},"properties":{"id":"marker72","type":"battlefields","icon":"⚔️","x":174.2,"y":571.23,"name":"Rocciavigno Battlefield","legend":"A historical battle of the Yerintean Rebellion. \r\nDate: March 17, 472 Brury Era."}},{"type":"Feature","geometry":{"type":"Point","coordinates":[-14.8985,34.2713]},"properties":{"id":"marker73","type":"battlefields","icon":"⚔️","x":290.58,"y":226.5,"name":"Hovden Battlefield","legend":"A historical battle of the Gjevelsan Campaign. \r\nDate: December 25, 762 Brury Era."}},{"type":"Feature","geometry":{"type":"Point","coordinates":[13.027,30.0096]},"properties":{"id":"marker74","type":"battlefields","icon":"⚔️","x":874.3,"y":315.64,"name":"Persbore Battlefield","legend":"A historical battle of the Swaracury Expedition. \r\nDate: April 15, 557 Brury Era."}},{"type":"Feature","geometry":{"type":"Point","coordinates":[-21.0044,19.8068]},"properties":{"id":"marker75","type":"battlefields","icon":"⚔️","x":162.95,"y":529.05,"name":"Labriamigna Battlefield","legend":"A historical battle of the Mordan Rebellion. \r\nDate: October 1, 764 Brury Era."}},{"type":"Feature","geometry":{"type":"Point","coordinates":[16.7533,28.8675]},"properties":{"id":"marker76","type":"battlefields","icon":"⚔️","x":952.19,"y":339.53,"name":"Penetslav Battlefield","legend":"A historical battle of the Abergian War. \r\nDate: April 22, 697 Brury Era."}},{"type":"Feature","geometry":{"type":"Point","coordinates":[-20.5738,25.6916]},"properties":{"id":"marker77","type":"battlefields","icon":"⚔️","x":171.95,"y":405.96,"name":"Frevolieulu Battlefield","legend":"A historical battle of the Turanmaan Conflict. \r\nDate: March 5, 751 Brury Era."}},{"type":"Feature","geometry":{"type":"Point","coordinates":[14.6536,22.1193]},"properties":{"id":"marker78","type":"battlefields","icon":"⚔️","x":908.3,"y":480.68,"name":"Invenek Battlefield","legend":"A historical battle of the Abergia-Peinian War. \r\nDate: October 17, 1000 Brury Era."}},{"type":"Feature","geometry":{"type":"Point","coordinates":[23.2318,17.5454]},"properties":{"id":"marker79","type":"battlefields","icon":"⚔️","x":1087.61,"y":576.35,"name":"Taurion Battlefield","legend":"A historical battle of the Abergia-Peinian War. \r\nDate: August 21, 969 Brury Era."}},{"type":"Feature","geometry":{"type":"Point","coordinates":[-2.072,33.6555]},"properties":{"id":"marker80","type":"battlefields","icon":"⚔️","x":558.69,"y":239.38,"name":"Yedi Battlefield","legend":"A historical battle of the Stansburian War. \r\nDate: March 4, 611 Brury Era."}},{"type":"Feature","geometry":{"type":"Point","coordinates":[-7.6133,32.9657]},"properties":{"id":"marker81","type":"battlefields","icon":"⚔️","x":442.86,"y":253.81,"name":"Manttoinaro Battlefield","legend":"A historical battle of the Aberleith Crusade. \r\nDate: March 19, 453 Brury Era."}},{"type":"Feature","geometry":{"type":"Point","coordinates":[19.9256,32.6946]},"properties":{"id":"marker82","type":"lake-monsters","icon":"🐉","x":1018.5,"y":259.48,"name":"Skipton Monster","legend":"Elders say a relic monster of 14 m long inhabits Skipton Lake. Truth or lie, folks are afraid to fish in the lake."}},{"type":"Feature","geometry":{"type":"Point","coordinates":[-17.3054,23.6702]},"properties":{"id":"marker83","type":"lake-monsters","icon":"🐉","x":240.27,"y":448.24,"name":"Guarnedinono Monster","legend":"Inscriptions say a relic monster of 9 m long inhabits Guarnedinono Lake. Truth or lie, folks are afraid to fish in the lake."}},{"type":"Feature","geometry":{"type":"Point","coordinates":[9.6738,19.3736]},"properties":{"id":"marker84","type":"lake-monsters","icon":"🐉","x":804.21,"y":538.11,"name":"Kavonverowen Monster","legend":"Rumors say a relic monster of 11 m long inhabits Kavonverowen Lake. Truth or lie, folks are afraid to fish in the lake."}},{"type":"Feature","geometry":{"type":"Point","coordinates":[-1.0668,31.9115]},"properties":{"id":"marker85","type":"lake-monsters","icon":"🐉","x":579.7,"y":275.86,"name":"Alte Monster","legend":"Legends say a relic monster of 17 m long inhabits Alte Lake. Truth or lie, folks are afraid to fish in the lake."}},{"type":"Feature","geometry":{"type":"Point","coordinates":[-10.4101,26.7462]},"properties":{"id":"marker86","type":"lake-monsters","icon":"🐉","x":384.4,"y":383.9,"name":"Albron Monster","legend":"Rumors say a relic monster of 11 m long inhabits Albron Lake. Truth or lie, folks are afraid to fish in the lake."}},{"type":"Feature","geometry":{"type":"Point","coordinates":[-13.371,23.7171]},"properties":{"id":"marker87","type":"lake-monsters","icon":"🐉","x":322.51,"y":447.26,"name":"Schwonafen Monster","legend":"Elders say a relic monster of 13 m long inhabits Schwonafen Lake. Truth or lie, folks are afraid to fish in the lake."}},{"type":"Feature","geometry":{"type":"Point","coordinates":[-13.07,19.0179]},"properties":{"id":"marker88","type":"lake-monsters","icon":"🐉","x":328.8,"y":545.55,"name":"Poykut Monster","legend":"Inscriptions say a relic monster of 5 m long inhabits Poykut Lake. Truth or lie, folks are afraid to fish in the lake."}},{"type":"Feature","geometry":{"type":"Point","coordinates":[13.1758,21.711]},"properties":{"id":"marker89","type":"sea-monsters","icon":"🦑","x":877.41,"y":489.22,"name":"Newleigh Monster","legend":"Old sailors tell stories of a gigantic sea monster inhabiting these dangerous waters. Rumors say it can be 17 m long."}},{"type":"Feature","geometry":{"type":"Point","coordinates":[-1.1864,34.0657]},"properties":{"id":"marker90","type":"sea-monsters","icon":"🦑","x":577.2,"y":230.8,"name":"Burymock Monster","legend":"Old sailors tell stories of a gigantic sea monster inhabiting these dangerous waters. Rumors say it can be 21 m long."}},{"type":"Feature","geometry":{"type":"Point","coordinates":[-18.7296,37.4554]},"properties":{"id":"marker91","type":"sea-monsters","icon":"🦑","x":210.5,"y":159.9,"name":"Thetrere Monster","legend":"Old sailors tell stories of a gigantic sea monster inhabiting these dangerous waters. Rumors say it can be 20 m long."}},{"type":"Feature","geometry":{"type":"Point","coordinates":[-13.5858,35.358]},"properties":{"id":"marker92","type":"sea-monsters","icon":"🦑","x":318.02,"y":203.77,"name":"Sherskirk Monster","legend":"Old sailors tell stories of a gigantic sea monster inhabiting these dangerous waters. Rumors say it can be 29 m long."}},{"type":"Feature","geometry":{"type":"Point","coordinates":[-24.6599,28.168]},"properties":{"id":"marker93","type":"sea-monsters","icon":"🦑","x":86.54,"y":354.16,"name":"Southin Monster","legend":"Old sailors tell stories of a gigantic sea monster inhabiting these dangerous waters. Rumors say it can be 23 m long."}},{"type":"Feature","geometry":{"type":"Point","coordinates":[3.6024,21.9223]},"properties":{"id":"marker94","type":"sea-monsters","icon":"🦑","x":677.3,"y":484.8,"name":"Westley Monster","legend":"Old sailors tell stories of a gigantic sea monster inhabiting these dangerous waters. Rumors say it can be 21 m long."}},{"type":"Feature","geometry":{"type":"Point","coordinates":[10.2379,21.4194]},"properties":{"id":"marker95","type":"hill-monsters","icon":"👹","x":816,"y":495.32,"name":"Aman Undead","legend":"Whispers speak of a fat Undead who inhabits Aman hills and eats kids whole."}},{"type":"Feature","geometry":{"type":"Point","coordinates":[20.6097,23.7754]},"properties":{"id":"marker96","type":"hill-monsters","icon":"👹","x":1032.8,"y":446.04,"name":"Netersto Dragon","legend":"Legends speak of a prime Dragon who inhabits Netersto hills and attacks unsuspecting victims."}},{"type":"Feature","geometry":{"type":"Point","coordinates":[7.1699,28.279]},"properties":{"id":"marker97","type":"hill-monsters","icon":"👹","x":751.87,"y":351.84,"name":"Kahar Yur Hag","legend":"Locals speak of a proud Hag who inhabits Kahar Yur hills and abducts young women."}},{"type":"Feature","geometry":{"type":"Point","coordinates":[-14.3622,22.3215]},"properties":{"id":"marker98","type":"hill-monsters","icon":"👹","x":301.79,"y":476.45,"name":"Gutachenburg Hydra","legend":"Tipplers speak of a terrifying Hydra who inhabits Gutachenburg hills and terrorizes the region."}},{"type":"Feature","geometry":{"type":"Point","coordinates":[17.3733,20.5583]},"properties":{"id":"marker99","type":"hill-monsters","icon":"👹","x":965.15,"y":513.33,"name":"Bothehover Monster","legend":"Legends speak of a great Monster who inhabits Bothehover hills and abducts young women."}},{"type":"Feature","geometry":{"type":"Point","coordinates":[-12.8299,30.6269]},"properties":{"id":"marker100","type":"hill-monsters","icon":"👹","x":333.82,"y":302.73,"name":"Ylakoski Hydra","legend":"Inscriptions speak of a superior Hydra who inhabits Ylakoski hills and attacks unsuspecting victims."}},{"type":"Feature","geometry":{"type":"Point","coordinates":[16.0538,24.0555]},"properties":{"id":"marker101","type":"hill-monsters","icon":"👹","x":937.57,"y":440.18,"name":"Eruro Troll","legend":"Journeying folk speak of a giant Troll who inhabits Eruro hills and abducts young women."}},{"type":"Feature","geometry":{"type":"Point","coordinates":[15.5243,19.7269]},"properties":{"id":"marker102","type":"hill-monsters","icon":"👹","x":926.5,"y":530.72,"name":"Fernandodu Giant","legend":"Journeying folk speak of a fat Giant who inhabits Fernandodu hills and prefers eating children."}},{"type":"Feature","geometry":{"type":"Point","coordinates":[-22.3544,26.3848]},"properties":{"id":"marker103","type":"sacred-forests","icon":"🌳","x":134.73,"y":391.46,"name":"Oieillonte Forest","legend":"A forest sacred to local Luari Doctrine."}},{"type":"Feature","geometry":{"type":"Point","coordinates":[18.6698,19.2598]},"properties":{"id":"marker104","type":"sacred-forests","icon":"🌳","x":992.25,"y":540.49,"name":"Rhamnatis Forest","legend":"A forest sacred to local Tamanian Heresy."}},{"type":"Feature","geometry":{"type":"Point","coordinates":[26.8113,25.1155]},"properties":{"id":"marker105","type":"sacred-forests","icon":"🌳","x":1162.43,"y":418.01,"name":"Skipton Forest","legend":"A forest sacred to local Bramburghism."}},{"type":"Feature","geometry":{"type":"Point","coordinates":[-13.9388,25.4678]},"properties":{"id":"marker106","type":"sacred-forests","icon":"🌳","x":310.64,"y":410.64,"name":"Schopel Forest","legend":"A forest sacred to local Shwazen Religion."}},{"type":"Feature","geometry":{"type":"Point","coordinates":[-9.5997,37.4109]},"properties":{"id":"marker107","type":"sacred-forests","icon":"🌳","x":401.34,"y":160.83,"name":"Kylvakuhajo Forest","legend":"A forest sacred to local Kocapism."}},{"type":"Feature","geometry":{"type":"Point","coordinates":[-20.7164,27.4571]},"properties":{"id":"marker108","type":"sacred-forests","icon":"🌳","x":168.97,"y":369.03,"name":"Monteou Forest","legend":"A forest sacred to local Luari Doctrine."}},{"type":"Feature","geometry":{"type":"Point","coordinates":[12.7218,20.7008]},"properties":{"id":"marker109","type":"sacred-forests","icon":"🌳","x":867.92,"y":510.35,"name":"Duibhidig Forest","legend":"A forest sacred to local Bramburghism."}},{"type":"Feature","geometry":{"type":"Point","coordinates":[-21.6459,21.9476]},"properties":{"id":"marker110","type":"sacred-forests","icon":"🌳","x":149.54,"y":484.27,"name":"Marnolarivig Forest","legend":"A forest sacred to local Faith of Fateaux."}},{"type":"Feature","geometry":{"type":"Point","coordinates":[-14.6574,29.6616]},"properties":{"id":"marker111","type":"sacred-forests","icon":"🌳","x":295.62,"y":322.92,"name":"Elzheim Forest","legend":"A forest sacred to local Shwazen Religion."}},{"type":"Feature","geometry":{"type":"Point","coordinates":[-21.7043,29.0965]},"properties":{"id":"marker112","type":"sacred-forests","icon":"🌳","x":148.32,"y":334.74,"name":"Chadon Forest","legend":"A forest sacred to local Luari Doctrine."}},{"type":"Feature","geometry":{"type":"Point","coordinates":[-16.2342,23.5225]},"properties":{"id":"marker113","type":"sacred-forests","icon":"🌳","x":262.66,"y":451.33,"name":"Isachin Forest","legend":"A forest sacred to local Shwazen Religion."}},{"type":"Feature","geometry":{"type":"Point","coordinates":[-22.0215,26.4273]},"properties":{"id":"marker114","type":"sacred-forests","icon":"🌳","x":141.69,"y":390.57,"name":"Vitruy Forest","legend":"A forest sacred to local Luari Doctrine."}},{"type":"Feature","geometry":{"type":"Point","coordinates":[-10.5632,36.2578]},"properties":{"id":"marker115","type":"sacred-forests","icon":"🌳","x":381.2,"y":184.95,"name":"Purjari Forest","legend":"A forest sacred to local Kocapism."}},{"type":"Feature","geometry":{"type":"Point","coordinates":[-12.8806,18.4108]},"properties":{"id":"marker116","type":"sacred-forests","icon":"🌳","x":332.76,"y":558.25,"name":"Akateli Forest","legend":"A forest sacred to local Kocapism."}},{"type":"Feature","geometry":{"type":"Point","coordinates":[3.0077,32.8074]},"properties":{"id":"marker117","type":"sacred-forests","icon":"🌳","x":664.87,"y":257.12,"name":"Devreka Forest","legend":"A forest sacred to local Kocapism."}},{"type":"Feature","geometry":{"type":"Point","coordinates":[-1.2711,33.6594]},"properties":{"id":"marker118","type":"sacred-forests","icon":"🌳","x":575.43,"y":239.3,"name":"Yaztoprak Forest","legend":"A forest sacred to local Kocapism."}},{"type":"Feature","geometry":{"type":"Point","coordinates":[-11.0507,31.366]},"properties":{"id":"marker119","type":"sacred-forests","icon":"🌳","x":371.01,"y":287.27,"name":"Viohma Forest","legend":"A forest sacred to local Turanv Religion."}},{"type":"Feature","geometry":{"type":"Point","coordinates":[16.759,30.5269]},"properties":{"id":"marker120","type":"sacred-forests","icon":"🌳","x":952.31,"y":304.82,"name":"Mebemoshe Forest","legend":"A forest sacred to local Bramburghism."}},{"type":"Feature","geometry":{"type":"Point","coordinates":[6.2958,25.5606]},"properties":{"id":"marker121","type":"sacred-forests","icon":"🌳","x":733.6,"y":408.7,"name":"Akalazbey Forest","legend":"A forest sacred to local Treaberlese Pantheon."}},{"type":"Feature","geometry":{"type":"Point","coordinates":[-13.2016,21.3405]},"properties":{"id":"marker122","type":"sacred-forests","icon":"🌳","x":326.05,"y":496.97,"name":"Ekibaydi Forest","legend":"A forest sacred to local Kocapism."}},{"type":"Feature","geometry":{"type":"Point","coordinates":[-4.5276,37.0624]},"properties":{"id":"marker123","type":"sacred-forests","icon":"🌳","x":507.36,"y":168.12,"name":"Kaumamaama Forest","legend":"A forest sacred to local Kocapism."}},{"type":"Feature","geometry":{"type":"Point","coordinates":[-8.9778,39.5465]},"properties":{"id":"marker124","type":"sacred-forests","icon":"🌳","x":414.34,"y":116.16,"name":"Vilpulai Forest","legend":"A forest sacred to local Kocapism."}},{"type":"Feature","geometry":{"type":"Point","coordinates":[-8.4156,20.139]},"properties":{"id":"marker125","type":"sacred-forests","icon":"🌳","x":426.09,"y":522.1,"name":"Kovala Forest","legend":"A forest sacred to local Yerinish Creed."}},{"type":"Feature","geometry":{"type":"Point","coordinates":[7.8875,27.5953]},"properties":{"id":"marker126","type":"sacred-forests","icon":"🌳","x":766.87,"y":366.14,"name":"Yazsu Forest","legend":"A forest sacred to local Kocapism."}},{"type":"Feature","geometry":{"type":"Point","coordinates":[-8.1946,19.6605]},"properties":{"id":"marker127","type":"sacred-forests","icon":"🌳","x":430.71,"y":532.11,"name":"Aski Forest","legend":"A forest sacred to local Yerinish Creed."}},{"type":"Feature","geometry":{"type":"Point","coordinates":[-12.3706,27.7655]},"properties":{"id":"marker128","type":"sacred-pineries","icon":"🌲","x":343.42,"y":362.58,"name":"Ohlsberg Pinery","legend":"A pinery sacred to local Turanv Religion."}},{"type":"Feature","geometry":{"type":"Point","coordinates":[-14.4852,21.5102]},"properties":{"id":"marker129","type":"statues","icon":"🗿","x":299.22,"y":493.42,"name":"Kalgekin Runestone","legend":"An ancient runestone. It has an inscription, but no one can translate it:\n        <div style=\"font-size: 1.8em; line-break: anywhere;\">\udc16\udc25\ud802𐠮\udc19𐠏\udc0a\udc15𐠪\udc0c\udc32\udc19\udc16\ud802 \udc21\udc2f\udc23𐠿\ud802\ud802 \udc12\udc23\ud802\ud802\ud802\ud802\ud802 𐠋\udc22\ud802\ud802𐠵𐠦\udc1f\udc1c\udc18\udc19\ud802𐠞\ud802𐠟𐠱\udc38 \ud802\ud802\ud802𐠷\ud802𐠌\ud802𐠔\ud802𐠜\ud802 𐠵</div>"}},{"type":"Feature","geometry":{"type":"Point","coordinates":[-10.6933,36.8492]},"properties":{"id":"marker130","type":"statues","icon":"🗿","x":378.48,"y":172.58,"name":"Kuuni Megalith","legend":"An ancient megalith. It has an inscription, but no one can translate it:\n        <div style=\"font-size: 1.8em; line-break: anywhere;\">\ud802𐠑\udc22  \ud802 𐠌\udc15𐠦\udc0f𐠢𐠥\udc30𐠷𐠒\udc1a 𐠮𐠼\udc3f\udc31\udc19𐠥\ud802\ud802𐠄\udc0b\ud802𐠈\ud802𐠰\ud802\ud802𐠸\ud802\ud802𐠰 𐠯\ud802\ud802\ud802\ud802 \ud802  𐠛\ud802 \udc05</div>"}},{"type":"Feature","geometry":{"type":"Point","coordinates":[-18.7454,36.6699]},"properties":{"id":"marker131","type":"statues","icon":"🗿","x":210.17,"y":176.33,"name":"Opnafrost Megalith","legend":"An ancient megalith. It has an inscription, but no one can translate it:\n        <div style=\"font-size: 1.8em; line-break: anywhere;\">་༠༐༭༤༬༯༶༗༻་༚༓༊༩༰༴༹་༶༴༘༊༈༪༗༇༶༆༱༥༱༪༊༱༅༛༃༼༨་༒༓༳༸༇༈༣༉༐༊༌༦༙༗༠༌༚༕༦༡༜༷༪༫༜༧༌༁༡༧༢༙༌༬༃༚༰༤༖་༯༖༠༻༼༅༴༨༒༦༒༷༜༐༒༴༯༬༑</div>"}},{"type":"Feature","geometry":{"type":"Point","coordinates":[4.4884,26.162]},"properties":{"id":"marker132","type":"statues","icon":"🗿","x":695.82,"y":396.12,"name":"Kadanoguz Statue","legend":"An ancient statue. It has an inscription, but no one can translate it:\n        <div style=\"font-size: 1.8em; line-break: anywhere;\">\udc3c\udc25\udc24𐠭\udc1b \ud802 𐠩𐠘\udc29𐠘𐠘\udc0f\udc26\udc19\ud802\ud802𐠨\udc20\udc34 𐠨𐠿\ud802𐠵\ud802\ud802 \udc0b\udc14 \ud802𐠎\udc1e𐠷\ud802𐠡\udc1e𐠎\ud802 \udc03𐠬𐠬\udc25𐠅\ud802\ud802𐠔\udc1a𐠛\udc1b𐠕\ud802\ud802</div>"}},{"type":"Feature","geometry":{"type":"Point","coordinates":[-23.2027,25.441]},"properties":{"id":"marker133","type":"statues","icon":"🗿","x":117,"y":411.2,"name":"Brouy Pillar","legend":"An ancient pillar. It has an inscription, but no one can translate it:\n        <div style=\"font-size: 1.8em; line-break: anywhere;\">ᡠᡠᡟᡱᢜ᠐ᡠᠵᠧ᠑ᡗᡍᡙᠰᡔᡕᠦᡠᠨᠠᡍᡓ᠀ᠳᢓᠩᠾᡯᠯᠾᢦᠭᢐᡍᠱᢥᠿᡟᢥᡱᢞᡀᢦᠽᢜᡔᠳᠯᢁᡎᠽᠱᠩᠱᡐᠽ᠑ᡎᡏᡁᡡᢁᠿᡝᡳᠨᡐᢡ</div>"}},{"type":"Feature","geometry":{"type":"Point","coordinates":[-27.8532,21.8678]},"properties":{"id":"marker134","type":"statues","icon":"🗿","x":19.79,"y":485.94,"name":"Joliveville Stele","legend":"An ancient stele. It has an inscription, but no one can translate it:\n        <div style=\"font-size: 1.8em; line-break: anywhere;\">Ⳕ ⳈⳚⲼⳭⲴⲴⳜⳚ ⳘⳁⳲⳜⳂⳞⳬⲲⳆ⳾⳩ⳜⳈ ⳆⳭⳎ⳪ⳎⳌ ⳬ⳧ⲲⳖⲺⳃⳬⲲⳈ ⳥ⳒⲺⳎⲾⲸⳊⳚⳔⳒⳈⳔⳢ⳩ⳠⳂⳁ</div>"}},{"type":"Feature","geometry":{"type":"Point","coordinates":[5.2405,19.5854]},"properties":{"id":"marker135","type":"statues","icon":"🗿","x":711.54,"y":533.68,"name":"Llandona Monument","legend":"An ancient monument. It has an inscription, but no one can translate it:\n        <div style=\"font-size: 1.8em; line-break: anywhere;\">ⳔⳬⳒⳈⳂⳃ⳩ⳊⳫⳞ ⳘⲶ⳥⳩⳩ⳜⳈⲲ Ⲻ⳥ⳠⳔⲾⲺⳬⲸⲲⳖⳫⳎ⳥ⳫⳭ Ⳳ⳪ⳁⲾⳬⳔⳠⳆⳔⳊⳢⳘⳐⳎ⳥⳾⳾ⳞⲴⳁ</div>"}},{"type":"Feature","geometry":{"type":"Point","coordinates":[-1.9442,35.7376]},"properties":{"id":"marker136","type":"statues","icon":"🗿","x":561.36,"y":195.83,"name":"Balbeynuz Runestone","legend":"An ancient runestone. It has an inscription, but no one can translate it:\n        <div style=\"font-size: 1.8em; line-break: anywhere;\">ⲴⳜⳔⳆ⳥ⲺⲺ⳥ⳃⳎⳔ⳹ⳢⳜⳈⳆ⳪ⳈⲲⳌ⳩ⳤⳀⳃⳈ⳥ⳜⳤⳁⲸⲾ⳾ⳞⳖⲼ ⳂⳄ⳧Ⳁ Ⳝ⳧ ⳩Ⲿ⳪ⳂⲲⲾⳈⲸⳠⳞⳲⳊⲴ⳧ ⳠⳁⳆ ⳞⳢⲸⳃ⳩Ⲹ⳪Ⲻ⳩ⲺⳈⳊ ⳜⲶ⳧</div>"}},{"type":"Feature","geometry":{"type":"Point","coordinates":[-0.6401,29.3795]},"properties":{"id":"marker137","type":"statues","icon":"🗿","x":588.62,"y":328.82,"name":"Oguzli Stele","legend":"An ancient stele. It has an inscription, but no one can translate it:\n        <div style=\"font-size: 1.8em; line-break: anywhere;\">ᠲᡑᡀᢛᡭᡜᠵᢋᢁ᠒ᡡᡗᠠᢢ᠀ᠪᢂᢥᠰᠭᢦᡝᠰᢜᡯᡆᠨᢞᠽᢒᡟᢓᡠᢦᠻᡎᢜ᠀ᢒᠵᢟᢋᠲᢢᡰᡔᠭᠮᡐ᠀ᠨᡝᡆᠲᠼᠯᢁᡞᡔᡏᠩᢢᠾ᠒ᠭ᠀ᡔᢜᢐᠮ᠑ᢢᠮᡱᡖᠯᢤᢏᡜᡀᡭᢢᡁᠱᠠ</div>"}},{"type":"Feature","geometry":{"type":"Point","coordinates":[-9.4074,40.1102]},"properties":{"id":"marker138","type":"statues","icon":"🗿","x":405.36,"y":104.37,"name":"Suole Runestone","legend":"An ancient runestone. It has an inscription, but no one can translate it:\n        <div style=\"font-size: 1.8em; line-break: anywhere;\">ⳭⲲⲸ⳾ⳬⲴ⳹ⳬⲼⳖⳫⳌⳆ⳹ⳭⳫⳜⳖⳁⳐⲴⳲⳈⳈ⳧ⳫⳎⳒⲲⳬ Ⳕⳬ⳥ⳄⳜ⳾Ⲽ⳾ ⳠⳖⳭ⳪⳧ⳄⳢⲸ⳥ⳫⳤⳂ Ⳗ⳥ⲸⳠⳘ Ⳳⳁⳃⳃ⳪⳧ⳁⳃⲴⳌ⳪Ⳉ⳧ⳢⳫⳆ ⳾</div>"}},{"type":"Feature","geometry":{"type":"Point","coordinates":[9.2763,34.0275]},"properties":{"id":"marker139","type":"statues","icon":"🗿","x":795.9,"y":231.6,"name":"Clifnalton Monument","legend":"An ancient monument. It has an inscription, but no one can translate it:\n        <div style=\"font-size: 1.8em; line-break: anywhere;\">ሠጸ ሰዘሰየፀሀኀፀነጸቀሠጸጠጸኀኀለጠሠፀመበደጸ  ገጸጠገ ሐየ ዘነ ጠሰፈገገ ፈዘዐኀወደነጰፐገአበዐአዘ  ደፈነገሰ ለደቀ ወ መ ተሐፐ</div>"}},{"type":"Feature","geometry":{"type":"Point","coordinates":[4.1669,35.4618]},"properties":{"id":"marker140","type":"statues","icon":"🗿","x":689.1,"y":201.6,"name":"Bilkalada Idol","legend":"An ancient idol. It has an inscription, but no one can translate it:\n        <div style=\"font-size: 1.8em; line-break: anywhere;\">༹༈༢༫༥༚༜༒ༀ༢༵༭༔༵༰༆༿༠༦༘༗་༄༫༔༪༷༽༫་༸༶༒༶༖༉༶༔༫༫༠༰</div>"}},{"type":"Feature","geometry":{"type":"Point","coordinates":[-5.0615,15.5733]},"properties":{"id":"marker141","type":"statues","icon":"🗿","x":496.2,"y":617.6,"name":"Baltun Column","legend":"An ancient column. It has an inscription, but no one can translate it:\n        <div style=\"font-size: 1.8em; line-break: anywhere;\">༼༑ༀ༩༣ༀ༑༻༠༴༻༮༉༈༰ༀ༕༁༫༤༈༫༺༥༁༶༙༶༢༛༴༽༱༆༲༜༢༡༅༬༜༇༘༸༖༽༂༱༡༗༸༘༦༙༃༼༡༙༡༹༱༲༙ༀ༩༦༁༳༤༗༦༄༖༒༮༷༛༷༘༵༑༖༌༅༗༣༑༦༬༪༌༼༃</div>"}},{"type":"Feature","geometry":{"type":"Point","coordinates":[-11.3942,25.3985]},"properties":{"id":"marker142","type":"statues","icon":"🗿","x":363.83,"y":412.09,"name":"Fischrin Monument","legend":"An ancient monument. It has an inscription, but no one can translate it:\n        <div style=\"font-size: 1.8em; line-break: anywhere;\">ጸ ረየ ገፈፀሠደገፐዘወኀበጸፐጠፈ ዐ ፐየሐመተገረደፈ ፐኀጠቀፀ ረመፈፐ ጸረለኀደገ</div>"}},{"type":"Feature","geometry":{"type":"Point","coordinates":[-2.5001,34.9469]},"properties":{"id":"marker143","type":"statues","icon":"🗿","x":549.74,"y":212.37,"name":"Buyvarkil Pillar","legend":"An ancient pillar. It has an inscription, but no one can translate it:\n        <div style=\"font-size: 1.8em; line-break: anywhere;\">ለሠሐለዐፈፐዐበሐኀወመፀሀከዐረጸጸ በሰረመበሐቀሰ ወተየዐጸረተጸ  ቀበዘሀሰፈበሀቀጸበዐጠወወዘየጠነጠቀጸሀየፀወሀሀ የሰዐየሰዐሐቀፐ</div>"}},{"type":"Feature","geometry":{"type":"Point","coordinates":[25.2933,26.512]},"properties":{"id":"marker144","type":"statues","icon":"🗿","x":1130.7,"y":388.8,"name":"Loutham Pillar","legend":"An ancient pillar. It has an inscription, but no one can translate it:\n        <div style=\"font-size: 1.8em; line-break: anywhere;\">ነ ጠፐገቀሐ መሐረቀደሐለረከወጰ ጰፀከቀየዘፐየሰዘደዘ ደሀመደኀጠፀሀሀጠከከጰገመበረገደ</div>"}},{"type":"Feature","geometry":{"type":"Point","coordinates":[-8.0975,33.8014]},"properties":{"id":"marker145","type":"statues","icon":"🗿","x":432.74,"y":236.33,"name":"Yhavalaki Idol","legend":"An ancient idol. It has an inscription, but no one can translate it:\n        <div style=\"font-size: 1.8em; line-break: anywhere;\">ᢥᠯᠪᡴᠽᢞᡗᡙᠿᡕᠯᠰᢏᢋᢤᡆᡳᠿᢟᡰᡖᡁᠽᡍᠡᢋᡔᠽᠯᠭᡝᠯᠦᢒᠦᡱᠵᡡᡐᡏᡲᢛ᠀ᡁᢓᠯᡳᠪᠡᠯᢦᠯᡗᡔᠿᢁᡱᡆᠼᡙᡁᠡ</div>"}},{"type":"Feature","geometry":{"type":"Point","coordinates":[4.0004,35.7367]},"properties":{"id":"marker146","type":"statues","icon":"🗿","x":685.62,"y":195.85,"name":"Aslan Megalith","legend":"An ancient megalith. It has an inscription, but no one can translate it:\n        <div style=\"font-size: 1.8em; line-break: anywhere;\">ᡴᠠ᠑ᠱᢥᠵᢐᡡᢤᢒᡜᡑᠰᢟᡆᢡᢏᠪᢑ᠀ᡠ᠀ᠼᡭᡆᠭᠦᢢᡗ᠀ᡭᠭᡲᢏᡒᢒᢡᡞᢑᢂᢏᡮᡑᠲᠩᡏ᠑᠒ᠱᢋᠳᡕᡁ</div>"}},{"type":"Feature","geometry":{"type":"Point","coordinates":[-5.8868,12.4954]},"properties":{"id":"marker147","type":"statues","icon":"🗿","x":478.95,"y":681.98,"name":"Allalidado Monolith","legend":"An ancient monolith. It has an inscription, but no one can translate it:\n        <div style=\"font-size: 1.8em; line-break: anywhere;\">ᠩᡍᡳᠳᠪᡓᢢᢂᠩᡡᠳᡟᢦᢛᠨᡳᢥᠵᠭᡑᡆᠡᡆᠼᢦᠨᡜᡯᡀᠭᢓᠰᠱᡀᠨ᠀᠐ᠠᡒᡒᠻᡭ᠐ᠵ᠀ᡎᡭᠿᡴᢓᡡᢂᡔᢀᠭ᠒ᡡᡔᢠᢐᡯᡎᡕᢥᠠᠧᢟᠩᡒᢀᡜᢀᡆ᠒ᠻ᠒ᢢᡓᡔᡑᠨᡗᡏᡡᡜᡒᠦᡑᢓᢤᡙᡴᢟ</div>"}},{"type":"Feature","geometry":{"type":"Point","coordinates":[10.0331,22.9234]},"properties":{"id":"marker148","type":"statues","icon":"🗿","x":811.72,"y":463.86,"name":"Abergornant Idol","legend":"An ancient idol. It has an inscription, but no one can translate it:\n        <div style=\"font-size: 1.8em; line-break: anywhere;\">༮༿༵་༵༙༷༶༵༽༤༹༧ༀ༫༔༱༊༛༆ༀ༄༚༉༒༶༊ༀ༽༨༽༼༫༥༢༻༷༛༇༁༜༔༵༢༉༾༈༿༫༶༺༰༥༇༹༈༷༶༺༔༔༡་༜༖༠༜༭༓༶༷༵༑༴༃༫༭༈༽༢༁༁༑༰༅༕༳༠༬༕༈༓༄༢</div>"}},{"type":"Feature","geometry":{"type":"Point","coordinates":[-5.4538,19.8981]},"properties":{"id":"marker149","type":"ruins","icon":"🏺","x":488,"y":527.14,"name":"Ruined Sacred site","legend":"Ruins of an ancient sacred site. Untold riches may lie within."}},{"type":"Feature","geometry":{"type":"Point","coordinates":[-3.2378,36.9142]},"properties":{"id":"marker150","type":"ruins","icon":"🏺","x":534.32,"y":171.22,"name":"Ruined Pyramid","legend":"Ruins of an ancient pyramid. Untold riches may lie within."}},{"type":"Feature","geometry":{"type":"Point","coordinates":[-10.4125,34.9316]},"properties":{"id":"marker151","type":"ruins","icon":"🏺","x":384.35,"y":212.69,"name":"Ruined City","legend":"Ruins of an ancient city. Untold riches may lie within."}},{"type":"Feature","geometry":{"type":"Point","coordinates":[-17.0551,35.3135]},"properties":{"id":"marker152","type":"ruins","icon":"🏺","x":245.5,"y":204.7,"name":"Ruined Outpost","legend":"Ruins of an ancient outpost. Untold riches may lie within."}},{"type":"Feature","geometry":{"type":"Point","coordinates":[-22.5817,22.4688]},"properties":{"id":"marker153","type":"ruins","icon":"🏺","x":129.98,"y":473.37,"name":"Ruined City","legend":"Ruins of an ancient city. Untold riches may lie within."}},{"type":"Feature","geometry":{"type":"Point","coordinates":[-13.1911,33.1115]},"properties":{"id":"marker154","type":"ruins","icon":"🏺","x":326.27,"y":250.76,"name":"Ruined Settlement","legend":"Ruins of an ancient settlement. Untold riches may lie within."}},{"type":"Feature","geometry":{"type":"Point","coordinates":[19.2166,19.0858]},"properties":{"id":"marker155","type":"ruins","icon":"🏺","x":1003.68,"y":544.13,"name":"Ruined Town","legend":"Ruins of an ancient town. Untold riches may lie within."}},{"type":"Feature","geometry":{"type":"Point","coordinates":[22.0478,17.4986]},"properties":{"id":"marker156","type":"ruins","icon":"🏺","x":1062.86,"y":577.33,"name":"Ruined Town","legend":"Ruins of an ancient town. Untold riches may lie within."}},{"type":"Feature","geometry":{"type":"Point","coordinates":[-3.0809,35.0147]},"properties":{"id":"marker157","type":"ruins","icon":"🏺","x":537.6,"y":210.95,"name":"Ruined Outpost","legend":"Ruins of an ancient outpost. Untold riches may lie within."}},{"type":"Feature","geometry":{"type":"Point","coordinates":[-15.0612,33.3462]},"properties":{"id":"marker158","type":"ruins","icon":"🏺","x":287.18,"y":245.85,"name":"Ruined Fortress","legend":"Ruins of an ancient fortress. Untold riches may lie within."}},{"type":"Feature","geometry":{"type":"Point","coordinates":[-10.5354,34.9545]},"properties":{"id":"marker159","type":"ruins","icon":"🏺","x":381.78,"y":212.21,"name":"Ruined Temple","legend":"Ruins of an ancient temple. Untold riches may lie within."}},{"type":"Feature","geometry":{"type":"Point","coordinates":[-13.9383,16.1504]},"properties":{"id":"marker160","type":"ruins","icon":"🏺","x":310.65,"y":605.53,"name":"Ruined Mausoleum","legend":"Ruins of an ancient mausoleum. Untold riches may lie within."}},{"type":"Feature","geometry":{"type":"Point","coordinates":[18.7812,33.3849]},"properties":{"id":"marker161","type":"ruins","icon":"🏺","x":994.58,"y":245.04,"name":"Ruined Castle","legend":"Ruins of an ancient castle. Untold riches may lie within."}},{"type":"Feature","geometry":{"type":"Point","coordinates":[-23.5567,35.0171]},"properties":{"id":"marker162","type":"ruins","icon":"🏺","x":109.6,"y":210.9,"name":"Ruined Sacred site","legend":"Ruins of an ancient sacred site. Untold riches may lie within."}},{"type":"Feature","geometry":{"type":"Point","coordinates":[-22.2559,18.3959]},"properties":{"id":"marker163","type":"ruins","icon":"🏺","x":136.79,"y":558.56,"name":"Ruined Settlement","legend":"Ruins of an ancient settlement. Untold riches may lie within."}},{"type":"Feature","geometry":{"type":"Point","coordinates":[-6.9929,32.4077]},"properties":{"id":"marker164","type":"ruins","icon":"🏺","x":455.83,"y":265.48,"name":"Ruined Stronghold","legend":"Ruins of an ancient stronghold. Untold riches may lie within."}},{"type":"Feature","geometry":{"type":"Point","coordinates":[20.8087,29.1099]},"properties":{"id":"marker165","type":"ruins","icon":"🏺","x":1036.96,"y":334.46,"name":"Ruined Fort","legend":"Ruins of an ancient fort. Untold riches may lie within."}},{"type":"Feature","geometry":{"type":"Point","coordinates":[-13.1327,18.6665]},"properties":{"id":"marker166","type":"ruins","icon":"🏺","x":327.49,"y":552.9,"name":"Ruined Fort","legend":"Ruins of an ancient fort. Untold riches may lie within."}},{"type":"Feature","geometry":{"type":"Point","coordinates":[24.603,26.3633]},"properties":{"id":"marker167","type":"ruins","icon":"🏺","x":1116.27,"y":391.91,"name":"Ruined Stronghold","legend":"Ruins of an ancient stronghold. Untold riches may lie within."}},{"type":"Feature","geometry":{"type":"Point","coordinates":[-14.4416,20.1649]},"properties":{"id":"marker168","type":"ruins","icon":"🏺","x":300.13,"y":521.56,"name":"Ruined Town","legend":"Ruins of an ancient town. Untold riches may lie within."}},{"type":"Feature","geometry":{"type":"Point","coordinates":[-14.5866,16.6108]},"properties":{"id":"marker169","type":"ruins","icon":"🏺","x":297.1,"y":595.9,"name":"Ruined City","legend":"Ruins of an ancient city. Untold riches may lie within."}},{"type":"Feature","geometry":{"type":"Point","coordinates":[-3.7172,34.1107]},"properties":{"id":"marker170","type":"ruins","icon":"🏺","x":524.3,"y":229.86,"name":"Ruined Castle","legend":"Ruins of an ancient castle. Untold riches may lie within."}},{"type":"Feature","geometry":{"type":"Point","coordinates":[-14.1751,18.5456]},"properties":{"id":"marker171","type":"ruins","icon":"🏺","x":305.7,"y":555.43,"name":"Ruined Stronghold","legend":"Ruins of an ancient stronghold. Untold riches may lie within."}},{"type":"Feature","geometry":{"type":"Point","coordinates":[-4.2956,15.0402]},"properties":{"id":"marker172","type":"ruins","icon":"🏺","x":512.21,"y":628.75,"name":"Ruined Sacred site","legend":"Ruins of an ancient sacred site. Untold riches may lie within."}},{"type":"Feature","geometry":{"type":"Point","coordinates":[15.5879,22.6404]},"properties":{"id":"marker173","type":"ruins","icon":"🏺","x":927.83,"y":469.78,"name":"Ruined Temple","legend":"Ruins of an ancient temple. Untold riches may lie within."}},{"type":"Feature","geometry":{"type":"Point","coordinates":[8.1932,20.6281]},"properties":{"id":"marker174","type":"ruins","icon":"🏺","x":773.26,"y":511.87,"name":"Ruined Temple","legend":"Ruins of an ancient temple. Untold riches may lie within."}},{"type":"Feature","geometry":{"type":"Point","coordinates":[-22.4468,35.7104]},"properties":{"id":"marker175","type":"ruins","icon":"🏺","x":132.8,"y":196.4,"name":"Ruined City","legend":"Ruins of an ancient city. Untold riches may lie within."}},{"type":"Feature","geometry":{"type":"Point","coordinates":[-20.072,22.6155]},"properties":{"id":"marker176","type":"libraries","icon":"📚","x":182.44,"y":470.3,"name":"Ladon Archive","legend":"A vast collection of knowledge, including many rare and ancient tomes."}},{"type":"Feature","geometry":{"type":"Point","coordinates":[7.4229,28.3186]},"properties":{"id":"marker177","type":"caves","icon":"🦇","x":757.16,"y":351.01,"name":"Boba Cavern","legend":"The Boba Cavern. Locals claim that it is endlessly deep and unexplored."}},{"type":"Feature","geometry":{"type":"Point","coordinates":[-19.3812,26.086]},"properties":{"id":"marker178","type":"caves","icon":"🦇","x":196.88,"y":397.71,"name":"Comeilliers Chasm","legend":"The Comeilliers Chasm. Locals claim that it is a good spot to hid treasure."}},{"type":"Feature","geometry":{"type":"Point","coordinates":[14.6306,20.9504]},"properties":{"id":"marker179","type":"caves","icon":"🦇","x":907.82,"y":505.13,"name":"Inversochla Grotto","legend":"The Inversochla Grotto. Locals claim that it is endlessly deep and unexplored."}},{"type":"Feature","geometry":{"type":"Point","coordinates":[-17.5962,20.8524]},"properties":{"id":"marker180","type":"caves","icon":"🦇","x":234.19,"y":507.18,"name":"Torgolo Cave","legend":"The Torgolo Cave. Locals claim that it is the home of strange monsters."}},{"type":"Feature","geometry":{"type":"Point","coordinates":[19.3797,21.4313]},"properties":{"id":"marker181","type":"caves","icon":"🦇","x":1007.09,"y":495.07,"name":"Icealinia Hole","legend":"The Icealinia Hole. Locals claim that it is endlessly deep and unexplored."}},{"type":"Feature","geometry":{"type":"Point","coordinates":[19.5252,32.1907]},"properties":{"id":"marker182","type":"portals","icon":"🌀","x":1010.13,"y":270.02,"name":"Grambedondo Portal","legend":"An element of the magic portal system connecting major city. The portals were installed centuries ago, but still work fine."}},{"type":"Feature","geometry":{"type":"Point","coordinates":[-8.3113,17.4613]},"properties":{"id":"marker183","type":"portals","icon":"🌀","x":428.27,"y":578.11,"name":"Torrinosoce Portal","legend":"An element of the magic portal system connecting major city. The portals were installed centuries ago, but still work fine."}},{"type":"Feature","geometry":{"type":"Point","coordinates":[13.9967,28.9784]},"properties":{"id":"marker184","type":"portals","icon":"🌀","x":894.57,"y":337.21,"name":"Linbury Portal","legend":"An element of the magic portal system connecting major city. The portals were installed centuries ago, but still work fine."}},{"type":"Feature","geometry":{"type":"Point","coordinates":[-22.8022,18.5676]},"properties":{"id":"marker185","type":"portals","icon":"🌀","x":125.37,"y":554.97,"name":"Vellena Portal","legend":"An element of the magic portal system connecting major city. The portals were installed centuries ago, but still work fine."}},{"type":"Feature","geometry":{"type":"Point","coordinates":[-8.8969,15.3013]},"properties":{"id":"marker186","type":"portals","icon":"🌀","x":416.03,"y":623.29,"name":"Allos Portal","legend":"An element of the magic portal system connecting major city. The portals were installed centuries ago, but still work fine."}},{"type":"Feature","geometry":{"type":"Point","coordinates":[-11.9228,31.1025]},"properties":{"id":"marker187","type":"portals","icon":"🌀","x":352.78,"y":292.78,"name":"Turanva Portal","legend":"An element of the magic portal system connecting major city. The portals were installed centuries ago, but still work fine."}},{"type":"Feature","geometry":{"type":"Point","coordinates":[-10.2962,24.591]},"properties":{"id":"marker188","type":"portals","icon":"🌀","x":386.78,"y":428.98,"name":"Hochenschw Portal","legend":"An element of the magic portal system connecting major city. The portals were installed centuries ago, but still work fine."}},{"type":"Feature","geometry":{"type":"Point","coordinates":[-11.1736,26.6544]},"properties":{"id":"marker189","type":"portals","icon":"🌀","x":368.44,"y":385.82,"name":"Wingengen Portal","legend":"An element of the magic portal system connecting major city. The portals were installed centuries ago, but still work fine."}},{"type":"Feature","geometry":{"type":"Point","coordinates":[-6.2858,17.9575]},"properties":{"id":"marker190","type":"portals","icon":"🌀","x":470.61,"y":567.73,"name":"Ayayruzun Portal","legend":"An element of the magic portal system connecting major city. The portals were installed centuries ago, but still work fine."}},{"type":"Feature","geometry":{"type":"Point","coordinates":[-4.6453,19.8345]},"properties":{"id":"marker191","type":"portals","icon":"🌀","x":504.9,"y":528.47,"name":"Yerinte Portal","legend":"An element of the magic portal system connecting major city. The portals were installed centuries ago, but still work fine."}},{"type":"Feature","geometry":{"type":"Point","coordinates":[17.3561,25.2536]},"properties":{"id":"marker192","type":"rifts","icon":"🎆","x":964.79,"y":415.12,"name":"Subterranean Rift","legend":"A rumoured subterranean rift in this area is causing cracks in reality itself to form."}},{"type":"Feature","geometry":{"type":"Point","coordinates":[-14.1417,31.2321]},"properties":{"id":"marker193","type":"rifts","icon":"🎆","x":306.4,"y":290.07,"name":"Subterranean Rift","legend":"A rumoured subterranean rift in this area is causing an emmissary to step through with an all-powerful relic."}},{"type":"Feature","geometry":{"type":"Point","coordinates":[-17.9345,20.7739]},"properties":{"id":"marker194","type":"disturbed-burials","icon":"💀","x":227.12,"y":508.82,"name":"Disturbed Burial","legend":"A burial site has been disturbed in this area, causing the dead to rise and attack the living."}},{"type":"Feature","geometry":{"type":"Point","coordinates":[20.9537,20.282]},"properties":{"id":"marker195","type":"disturbed-burials","icon":"💀","x":1039.99,"y":519.11,"name":"Disturbed Burial","legend":"A burial site has been disturbed in this area, causing the dead to rise and attack the living."}},{"type":"Feature","geometry":{"type":"Point","coordinates":[19.883,31.0045]},"properties":{"id":"marker196","type":"disturbed-burials","icon":"💀","x":1017.61,"y":294.83,"name":"Disturbed Burial","legend":"A burial site has been disturbed in this area, causing the dead to rise and attack the living."}},{"type":"Feature","geometry":{"type":"Point","coordinates":[-14.9506,24.0637]},"properties":{"id":"marker197","type":"disturbed-burials","icon":"💀","x":289.49,"y":440.01,"name":"Disturbed Burial","legend":"A burial site has been disturbed in this area, causing the dead to rise and attack the living."}},{"type":"Feature","geometry":{"type":"Point","coordinates":[-24.1384,17.0119]},"properties":{"id":"marker198","type":"disturbed-burials","icon":"💀","x":97.44,"y":587.51,"name":"Disturbed Burial","legend":"A burial site has been disturbed in this area, causing the dead to rise and attack the living."}},{"type":"Feature","geometry":{"type":"Point","coordinates":[-3.8268,37.528]},"properties":{"id":"marker199","type":"disturbed-burials","icon":"💀","x":522.01,"y":158.38,"name":"Disturbed Burial","legend":"A burial site has been disturbed in this area, causing the dead to rise and attack the living."}},{"type":"Feature","geometry":{"type":"Point","coordinates":[-15.5156,19.8594]},"properties":{"id":"marker200","type":"disturbed-burials","icon":"💀","x":277.68,"y":527.95,"name":"Disturbed Burial","legend":"A burial site has been disturbed in this area, causing the dead to rise and attack the living."}},{"type":"Feature","geometry":{"type":"Point","coordinates":[5.9925,28.2422]},"properties":{"id":"marker201","type":"disturbed-burials","icon":"💀","x":727.26,"y":352.61,"name":"Disturbed Burial","legend":"A burial site has been disturbed in this area, causing the dead to rise and attack the living."}},{"type":"Feature","geometry":{"type":"Point","coordinates":[2.1906,32.6429]},"properties":{"id":"marker202","type":"disturbed-burials","icon":"💀","x":647.79,"y":260.56,"name":"Disturbed Burial","legend":"A burial site has been disturbed in this area, causing the dead to rise and attack the living."}},{"type":"Feature","geometry":{"type":"Point","coordinates":[-17.7948,29.4302]},"properties":{"id":"marker203","type":"disturbed-burials","icon":"💀","x":230.04,"y":327.76,"name":"Disturbed Burial","legend":"A burial site has been disturbed in this area, causing the dead to rise and attack the living."}},{"type":"Feature","geometry":{"type":"Point","coordinates":[-3.4287,32.0994]},"properties":{"id":"marker204","type":"disturbed-burials","icon":"💀","x":530.33,"y":271.93,"name":"Disturbed Burial","legend":"A burial site has been disturbed in this area, causing the dead to rise and attack the living."}},{"type":"Feature","geometry":{"type":"Point","coordinates":[-14.2091,17.8337]},"properties":{"id":"marker205","type":"necropolises","icon":"🪦","x":304.99,"y":570.32,"name":"Elen Crypt","legend":"An eerie necropolis where nature intertwines with death. Overgrown tombstones are entwined by thorny vines, and mournful spirits wander among the fading petals of once-vibrant flowers."}},{"type":"Feature","geometry":{"type":"Point","coordinates":[-9.5207,26.5072]},"properties":{"id":"marker206","type":"necropolises","icon":"🪦","x":402.99,"y":388.9,"name":"Tutosch Tomb","legend":"A foreboding necropolis shrouded in perpetual darkness, where eerie whispers echo through the winding corridors and spectral guardians stand watch over the tombs of long-forgotten souls."}},{"type":"Feature","geometry":{"type":"Point","coordinates":[16.8944,20.2681]},"properties":{"id":"marker207","type":"necropolises","icon":"🪦","x":955.14,"y":519.4,"name":"Hertry Graveyard","legend":"Rising from the desolate landscape, this sinister necropolis is a testament to necromantic power. Its skeletal spires cast ominous shadows, concealing forbidden knowledge and arcane secrets."}},{"type":"Feature","geometry":{"type":"Point","coordinates":[-20.4073,36.9701]},"properties":{"id":"marker208","type":"necropolises","icon":"🪦","x":175.43,"y":170.05,"name":"Gimstad Cemetery","legend":"A foreboding necropolis perched atop a jagged cliff, overlooking a desolate wasteland. Its towering walls harbor restless spirits, and the imposing gates bear the marks of countless battles and ancient curses."}},{"type":"Feature","geometry":{"type":"Point","coordinates":[17.5422,25.1819]},"properties":{"id":"marker209","type":"necropolises","icon":"🪦","x":968.68,"y":416.62,"name":"Thatcles Necropolis","legend":"Rising from the desolate landscape, this sinister necropolis is a testament to necromantic power. Its skeletal spires cast ominous shadows, concealing forbidden knowledge and arcane secrets."}}]}